# From MPC 81862
275P/Hermann,e,21.2751,348.7574,174.0306,5.774404,0.0710302,0.71247890,234.2988,12/28.0/2021,2000,g 17.0,4.0
# From MPEC 2020-K19
276P/Vorobjov,e,14.8103,211.3764,199.6228,5.320287,0.0803159,0.26743961,273.0686,12/28.0/2021,2000,g 11.5,4.0
# From MPEC 2021-F20
277P/LINEAR,e,16.7769,276.3364,152.3169,3.853484,0.1302938,0.50585305,47.2719,12/28.0/2021,2000,g 15.1,4.0
# From MPEC 2021-S45
278P/McNaught,e,6.6936,15.3818,237.9267,3.691395,0.1389691,0.43578725,65.6276,12/28.0/2021,2000,g 14.0,4.0
# From MPC100285
279P/La Sagra,e,5.0525,346.2336,5.8295,3.573262,0.1459173,0.39864096,290.3145,12/28.0/2021,2000,g 14.0,4.0
# From MPC 89013
280P/Larsen,e,11.7746,131.3934,104.7693,4.529872,0.1022292,0.41742748,300.2239,12/28.0/2021,2000,g 12.5,4.0
# From MPEC 2021-W31
281P/MOSS,e,4.7191,87.1797,26.6825,4.873749,0.0916029,0.17219038,323.2818,12/28.0/2021,2000,g 11.0,4.0
# From MPC133426
282P/,e,5.8116,9.2968,217.6294,4.240362,0.1128755,0.18851451,7.2662,12/28.0/2021,2000,g 13.5,2.0
# From MPEC 2021-BE3
283P/Spacewatch,e,14.4552,161.1291,22.2426,4.138014,0.1170890,0.48473633,12.9971,12/28.0/2021,2000,g 16.0,2.0
# From MPEC 2021-Y10
284P/McNaught,e,11.8614,144.2629,202.4284,3.677510,0.1397569,0.37574935,14.8635,12/28.0/2021,2000,g 13.0,4.0
# From MPC 85339
285P/LINEAR,e,25.0382,185.5066,178.4345,4.507460,0.1029927,0.61851998,320.8214,12/28.0/2021,2000,g 15.0,4.0
# From MPEC 2021-O56
286P/Christensen,e,17.0457,283.9568,24.8577,4.108843,0.1183381,0.42538171,343.9472,12/28.0/2021,2000,g 14.0,4.0
# From MPC 96868
287P/Christensen,e,16.3199,139.0437,189.0150,4.163973,0.1159958,0.27101993,295.7973,12/28.0/2021,2000,g 13.5,4.0
# From MPC133426
288P/,e,3.2378,83.1496,280.3052,3.051465,0.1849019,0.20139071,348.1417,12/28.0/2021,2000,g 16.0,2.0
# From MPEC 2021-S45
289P/Blanpain,e,5.8960,68.8825,9.8511,3.046331,0.1853696,0.68559868,136.8053,12/28.0/2021,2000,g 19.0,4.0
# From MPC 95214
290P/Jager,e,20.0979,302.6871,181.9079,6.212732,0.0636473,0.62816695,183.9096,12/28.0/2021,2000,g 10.5,4.0
# From MPEC 2021-N06
291P/NEAT,e,6.3001,237.9283,173.6681,4.532906,0.1021266,0.43552207,309.6186,12/28.0/2021,2000,g 13.0,4.0
# From MPC115887
292P/Li,e,24.2708,90.9603,319.4717,6.105309,0.0653345,0.58882066,188.6364,12/28.0/2021,2000,g 12.5,4.0
# From MPEC 2021-S45
293P/Spacewatch,e,9.0570,78.4019,41.0183,3.642827,0.1417575,0.41823440,52.9944,12/28.0/2021,2000,g 14.5,4.0
# From MPEC 2020-SI8
294P/LINEAR,e,18.1483,312.4249,235.3248,3.195343,0.1725551,0.59951942,130.6059,12/28.0/2021,2000,g 15.5,4.0
# From MPC 93589
295P/LINEAR,e,21.0741,7.4356,72.8796,5.306141,0.0806373,0.61644880,225.3866,12/28.0/2021,2000,g 12.0,4.0
# From MPEC 2021-N06
296P/Garradd,e,25.2305,263.5928,350.0639,3.495087,0.1508402,0.47871824,70.3303,12/28.0/2021,2000,g 14.0,4.0
# From MPC102956
297P/Beshore,e,10.3232,97.6457,132.6588,3.446374,0.1540496,0.31977485,52.1668,12/28.0/2021,2000,g 15.0,4.0
# From MPC114609
298P/Christensen,e,7.8709,52.8226,100.6584,3.590905,0.1448432,0.38646978,69.2029,12/28.0/2021,2000,g 15.0,4.0
# From MPC101100
299P/Catalina-PANSTARRS,e,10.4715,271.6215,323.8481,4.386333,0.1072881,0.28118147,268.2633,12/28.0/2021,2000,g 11.5,4.0
# From MPC114609
300P/Catalina,e,5.6743,95.6443,222.9158,2.699718,0.2221910,0.69177500,255.7802,12/28.0/2021,2000,g 16.0,4.0
# From MPC 89014
301P/LINEAR-NEAT,e,10.3398,351.1750,193.6563,5.739408,0.0716809,0.58516338,192.1957,12/28.0/2021,2000,g 13.0,4.0
# From MPEC 2020-HN5
302P/Lemmon-PANSTARRS,e,6.0339,121.7499,208.3272,4.275112,0.1115020,0.23027666,230.0258,12/28.0/2021,2000,g 12.5,4.0
# From MPC 92278
303P/NEAT,e,7.0217,347.9722,356.9184,5.046075,0.0869508,0.51084097,228.3772,12/28.0/2021,2000,g 13.5,4.0
# From MPEC 2020-N08
304P/Ory,e,2.6069,58.9210,335.2406,3.150675,0.1762376,0.60067894,88.5600,12/28.0/2021,2000,g 16.5,4.0
# From MPC101100
305P/Skiff,e,11.6571,240.1066,147.3169,4.642715,0.0985249,0.69361465,256.0291,12/28.0/2021,2000,g 18.0,4.0
# From MPC 92278
306P/LINEAR,e,8.3114,341.3730,0.8594,3.123576,0.1785361,0.59331446,125.8635,12/28.0/2021,2000,g 19.0,4.0
# From MPC 92278
307P/LINEAR,e,4.4353,158.1642,222.1296,5.791500,0.0707160,0.67511323,181.1966,12/28.0/2021,2000,g 15.0,4.0
# From MPC109148
308P/Lagerkvist-Carsenty,e,4.8521,63.0646,333.6003,6.602076,0.0581010,0.36392883,140.9632,12/28.0/2021,2000,g 13.0,2.0
# From MPC 94284
309P/LINEAR,e,17.0237,10.1461,49.9421,4.372183,0.1078094,0.61788156,271.3404,12/28.0/2021,2000,g 15.0,4.0
# From MPC 98566
310P/Hill,e,13.1278,8.9236,31.8013,4.179263,0.1153598,0.42203907,283.2344,12/28.0/2021,2000,g 13.5,4.0
# From MPEC 2021-BE3
311P/PANSTARRS,e,4.9695,279.2176,144.5431,2.188582,0.3044107,0.11564616,135.9557,12/28.0/2021,2000,g 17.0,4.0
# From MPEC 2021-BE3
312P/NEAT,e,19.7682,144.6694,207.5884,3.467822,0.1526226,0.42788526,70.0361,12/28.0/2021,2000,g 16.0,4.0
# From MPEC 2021-S45
313P/Gibbs,e,10.9814,105.9718,254.7543,3.163318,0.1751821,0.23503803,108.8393,12/28.0/2021,2000,g 15.0,4.0
# From MPC105243
314P/Montani,e,3.9818,267.6089,214.0511,7.264851,0.0503343,0.41614481,96.0161,12/28.0/2021,2000,g  9.5,4.0
# From MPEC 2021-N06
315P/LONEOS,e,17.7468,68.8549,65.7203,4.939725,0.0897739,0.52107927,166.7283,12/28.0/2021,2000,g 11.0,4.0
# From MPC 92279
316P/LONEOS-Christensen,e,9.8318,246.5205,192.8496,4.369058,0.1079251,0.15638583,246.1779,12/28.0/2021,2000,g 13.5,4.0
# From MPEC 2020-C98
317P/WISE,e,11.9504,275.4978,334.8668,2.963486,0.1931967,0.57047893,88.4628,12/28.0/2021,2000,g 17.5,4.0
# From MPC102103
318P/McNaught-Hartley,e,17.8821,35.5507,313.2340,7.500357,0.0479823,0.67530121,108.2258,12/28.0/2021,2000,g  8.5,6.0
# From MPC 97499
319P/Catalina-McNaught,e,15.0950,111.3705,203.6786,3.566196,0.1463512,0.66659756,346.3258,12/28.0/2021,2000,g 15.0,4.0
# From MPC 96281
320P/McNaught,e,4.9085,295.9337,0.7794,3.093612,0.1811362,0.68561250,62.4716,12/28.0/2021,2000,g 20.5,4.0
# From MPC105243
321P/SOHO,e,20.0904,165.0179,172.7471,2.423469,0.2612449,0.98111370,0.0000,10/26.4575/2023,2000,g 20.0,4.0
# From MPC102103
322P/SOHO,e,11.4678,351.5274,56.8731,2.507899,0.2481641,0.97988195,0.0000,08/21.0974/2023,2000,g 19.0,4.0
# From MPEC 2016-Y36
323P/SOHO,e,5.3364,324.3806,353.0535,2.582907,0.2374329,0.98483068,0.0000,01/17.7819/2021,2000,g 20.0,4.0
# From MPEC 2021-W31
324P/LaSagra,e,21.4029,270.5901,57.5768,3.095176,0.1809990,0.15403290,42.8202,12/28.0/2021,2000,g 13.0,4.0
# From MPC114609
325P/Yang-Gao,e,16.6938,257.5607,343.6990,3.523086,0.1490456,0.59342080,346.4110,12/28.0/2021,2000,g 14.0,4.0
# From MPC103849
326P/Hill,e,2.4710,99.8094,278.6203,4.062816,0.1203548,0.31797335,271.8276,12/28.0/2021,2000,g 13.5,4.0
# From MPC 97499
327P/Van Ness,e,36.2512,173.9853,185.0502,3.561830,0.1466204,0.56313786,323.5725,12/28.0/2021,2000,g 16.0,4.0
# From MPC109148
328P/LONEOS-Tucker,e,17.6732,341.6355,30.5106,4.193361,0.1147785,0.55243418,251.7684,12/28.0/2021,2000,g 14.5,4.0
# From MPC101101
329P/LINEAR-Catalina,e,21.6825,87.6670,343.5287,5.190301,0.0833519,0.67751401,185.0374,12/28.0/2021,2000,g 13.5,4.0
# From MPC105243
330P/Catalina,e,15.6979,293.0912,188.9167,6.626387,0.0577815,0.54837548,112.6918,12/28.0/2021,2000,g 12.0,4.0
# From MPEC 2021-BE3
331P/Gibbs,e,9.7379,216.7639,184.1773,3.004982,0.1892087,0.04110400,85.5779,12/28.0/2021,2000,g 12.0,4.0
# From MPEC 2016-K18
332P/Ikeya-Murakami,e,9.3800,3.7857,152.3320,3.088945,0.1815469,0.48943929,23.8912,12/28.0/2021,2000,g 18.0,4.0
# From MPEC 2016-EI8
332P-B/Ikeya-Murakami,e,9.3805,3.8028,152.3711,3.082329,0.1821317,0.48970701,359.9699,03/17.0/2016,2000,g 19.0,4.0
# From MPEC 2016-K18
332P-C/Ikeya-Murakami,e,9.3791,3.7861,152.3233,3.088911,0.1815499,0.48944475,23.9058,12/28.0/2021,2000,g 16.5,4.0
# From MPEC 2016-ED0
332P-D/Ikeya-Murakami,e,9.3761,3.7923,152.4393,3.081138,0.1822373,0.48977814,359.9486,03/17.0/2016,2000,g 19.0,4.0
# From MPEC 2016-ED0
332P-E/Ikeya-Murakami,e,9.3774,3.8228,152.2825,3.079877,0.1823493,0.48922008,359.9889,03/17.0/2016,2000,g 21.0,4.0
# From MPEC 2016-ED0
332P-F/Ikeya-Murakami,e,9.5293,3.4757,152.8203,3.163214,0.1751908,0.49918860,359.8501,03/17.0/2016,2000,g 21.0,4.0
# From MPEC 2016-ED0
332P-G/Ikeya-Murakami,e,9.2523,3.6955,154.4000,3.050519,0.1849880,0.49200362,359.9006,03/19.0/2016,2000,g 19.0,4.0
# From MPC100285
332P-H/Ikeya-Murakami,e,9.3796,3.7859,152.3239,3.089096,0.1815336,0.48947998,23.8386,12/28.0/2021,2000,g 19.0,4.0
# From MPEC 2016-ED0
332P-I/Ikeya-Murakami,e,9.3791,3.8048,152.3297,3.081767,0.1821815,0.48955490,359.9360,03/17.0/2016,2000,g 20.5,2.0
# From MPEC 2016-EI8
332P-J/Ikeya-Murakami,e,9.4296,3.6729,152.7712,3.115165,0.1792596,0.49429435,359.8613,03/17.0/2016,2000,g 20.5,2.0
# From MPEC 2020-L06
333P/LINEAR,e,131.9873,115.6329,25.9929,4.219939,0.1136959,0.73669110,238.6688,12/28.0/2021,2000,g 15.0,4.0
# From MPC115888
334P/NEAT,e,20.4164,90.6440,90.1084,6.838492,0.0551142,0.35096351,91.8441,12/28.0/2021,2000,g 10.5,4.0
# From MPEC 2021-U31
335P/Gibbs,e,7.2934,330.8475,162.3035,3.577299,0.1456704,0.54603489,326.9309,12/28.0/2021,2000,g 17.0,4.0
# From MPC105244
336P/McNaught,e,17.8318,298.2433,308.7539,5.033980,0.0872643,0.44460057,156.2465,12/28.0/2021,2000,g 13.5,4.0
# From MPEC 2021-N06
337P/WISE,e,15.3709,106.0635,161.0205,3.286286,0.1654421,0.49666364,329.3699,12/28.0/2021,2000,g 17.0,4.0
# From MPC104796
338P/McNaught,e,25.3844,9.7956,4.4276,3.895903,0.1281716,0.41179486,238.3844,12/28.0/2021,2000,g 12.0,4.0
# From MPC101101
339P/Gibbs,e,5.7333,172.7252,27.4963,3.697773,0.1386097,0.63545640,275.2992,12/28.0/2021,2000,g 17.0,4.0
# From MPEC 2021-UA9
340P/Boattini,e,2.0787,291.7036,35.9009,4.250809,0.1124596,0.28086210,209.4396,12/28.0/2021,2000,g 14.3,4.0
# From MPEC 2021-BE3
341P/Gibbs,e,3.7965,29.9714,312.2011,4.292360,0.1108306,0.41566940,225.7976,12/28.0/2021,2000,g 12.5,4.0
# From MPC101101
342P/SOHO,e,11.6662,27.7047,73.2671,3.042470,0.1857225,0.98276645,0.0000,10/19.3008/2021,2000,g  9.0,4.0
# From MPC109148
343P/NEAT-LONEOS,e,5.5865,257.1702,137.4049,5.459175,0.0772705,0.58464449,138.6018,12/28.0/2021,2000,g 14.0,4.0
# From MPC109148
